STARLINK-2564
1 18284C 21036J   21326.16770491  .00007286  00000-0  48818-3 0  3266
2 18284  53.0519 282.9805 0001873  66.7566   8.0753 15.06389234    15
